{
  "type": "FeatureCollection",
  "features": [
    {
      "type": "Feature",
      "properties": {
        "norad_id": 29954,
        "name": "FENGYUN 1C DEB",
        "group": "fengyun-1c-debris",
        "lat": 72.2520450472333,
        "lon": -122.92395408335592,
        "alt_km": 822.7736839405497,
        "timestamp": "2025-12-11T05:00:26.581371+00:00",
        "meta_object_name": "FENGYUN 1C DEB",
        "meta_object_id": "1999-025KC",
        "meta_epoch": "2025-12-10T20:08:42.815616",
        "meta_mean_motion": 14.34213886,
        "meta_eccentricity": 0.00742281,
        "meta_inclination": 100.1516,
        "meta_ra_of_asc_node": 22.601,
        "meta_arg_of_pericenter": 274.6221,
        "meta_mean_anomaly": 84.6483,
        "meta_ephemeris_type": 0,
        "meta_classification_type": "U",
        "meta_norad_cat_id": 29954,
        "meta_element_set_no": 999,
        "meta_rev_at_epoch": 98160,
        "meta_bstar": 0.0012393332,
        "meta_mean_motion_dot": 3.527e-05,
        "meta_mean_motion_ddot": 0,
        "tle_line1": "1 29954U 99025KC  25344.83938444  .00003527  00000+0  12393-2 0  9991",
        "tle_line2": "2 29954 100.1516  22.6010 0074228 274.6221  84.6483 14.34213886981600"
      },
      "geometry": {
        "type": "Point",
        "coordinates": [
          -122.92395408335592,
          72.2520450472333
        ]
      }
    },
    {
      "type": "Feature",
      "properties": {
        "norad_id": 29955,
        "name": "FENGYUN 1C DEB",
        "group": "fengyun-1c-debris",
        "lat": 4.490422855033071,
        "lon": -113.50972281428872,
        "alt_km": 765.5189936186061,
        "timestamp": "2025-12-11T05:00:26.581381+00:00",
        "meta_object_name": "FENGYUN 1C DEB",
        "meta_object_id": "1999-025KD",
        "meta_epoch": "2025-12-10T04:56:44.824704",
        "meta_mean_motion": 14.3820401,
        "meta_eccentricity": 0.00074488,
        "meta_inclination": 99.2736,
        "meta_ra_of_asc_node": 64.6735,
        "meta_arg_of_pericenter": 255.3563,
        "meta_mean_anomaly": 132.1363,
        "meta_ephemeris_type": 0,
        "meta_classification_type": "U",
        "meta_norad_cat_id": 29955,
        "meta_element_set_no": 999,
        "meta_rev_at_epoch": 98025,
        "meta_bstar": 0.0022017308,
        "meta_mean_motion_dot": 6.645e-05,
        "meta_mean_motion_ddot": 0,
        "tle_line1": "1 29955U 99025KD  25344.20607436  .00006645  00000+0  22017-2 0  9995",
        "tle_line2": "2 29955  99.2736  64.6735 0007448 255.3563 132.1363 14.38204010980257"
      },
      "geometry": {
        "type": "Point",
        "coordinates": [
          -113.50972281428872,
          4.490422855033071
        ]
      }
    },
    {
      "type": "Feature",
      "properties": {
        "norad_id": 29956,
        "name": "FENGYUN 1C DEB",
        "group": "fengyun-1c-debris",
        "lat": 54.90940358584764,
        "lon": 1.3821495249585216,
        "alt_km": 834.8479133935825,
        "timestamp": "2025-12-11T05:00:26.581392+00:00",
        "meta_object_name": "FENGYUN 1C DEB",
        "meta_object_id": "1999-025KE",
        "meta_epoch": "2025-12-10T22:28:34.057056",
        "meta_mean_motion": 14.06170653,
        "meta_eccentricity": 0.00538391,
        "meta_inclination": 98.792,
        "meta_ra_of_asc_node": 13.8435,
        "meta_arg_of_pericenter": 22.622,
        "meta_mean_anomaly": 96.141,
        "meta_ephemeris_type": 0,
        "meta_classification_type": "U",
        "meta_norad_cat_id": 29956,
        "meta_element_set_no": 999,
        "meta_rev_at_epoch": 97024,
        "meta_bstar": -3.203224e-06,
        "meta_mean_motion_dot": -4.8e-07,
        "meta_mean_motion_ddot": 0,
        "tle_line1": "1 29956U 99025KE  25344.93650529 -.00000048  00000+0 -32032-5 0  9991",
        "tle_line2": "2 29956  98.7920  13.8435 0053839  22.6220  96.1410 14.06170653970240"
      },
      "geometry": {
        "type": "Point",
        "coordinates": [
          1.3821495249585216,
          54.90940358584764
        ]
      }
    },
    {
      "type": "Feature",
      "properties": {
        "norad_id": 29957,
        "name": "FENGYUN 1C DEB",
        "group": "fengyun-1c-debris",
        "lat": -41.29025280490466,
        "lon": -75.84350836582787,
        "alt_km": 707.8409244183458,
        "timestamp": "2025-12-11T05:00:26.581402+00:00",
        "meta_object_name": "FENGYUN 1C DEB",
        "meta_object_id": "1999-025KF",
        "meta_epoch": "2025-12-10T20:26:21.817824",
        "meta_mean_motion": 14.51003954,
        "meta_eccentricity": 0.00381628,
        "meta_inclination": 98.9205,
        "meta_ra_of_asc_node": 111.7067,
        "meta_arg_of_pericenter": 183.5496,
        "meta_mean_anomaly": 334.2212,
        "meta_ephemeris_type": 0,
        "meta_classification_type": "U",
        "meta_norad_cat_id": 29957,
        "meta_element_set_no": 999,
        "meta_rev_at_epoch": 97464,
        "meta_bstar": 0.0078276495,
        "meta_mean_motion_dot": 0.00031346,
        "meta_mean_motion_ddot": 0,
        "tle_line1": "1 29957U 99025KF  25344.85164141  .00031346  00000+0  78276-2 0  9993",
        "tle_line2": "2 29957  98.9205 111.7067 0038162 183.5496 334.2212 14.51003954974645"
      },
      "geometry": {
        "type": "Point",
        "coordinates": [
          -75.84350836582787,
          -41.29025280490466
        ]
      }
    },
    {
      "type": "Feature",
      "properties": {
        "norad_id": 29958,
        "name": "FENGYUN 1C DEB",
        "group": "fengyun-1c-debris",
        "lat": -23.275223370298534,
        "lon": 3.383122766573614,
        "alt_km": 810.2213217698827,
        "timestamp": "2025-12-11T05:00:26.581412+00:00",
        "meta_object_name": "FENGYUN 1C DEB",
        "meta_object_id": "1999-025KG",
        "meta_epoch": "2025-12-10T12:08:24.797184",
        "meta_mean_motion": 14.14452454,
        "meta_eccentricity": 0.00544697,
        "meta_inclination": 98.6687,
        "meta_ra_of_asc_node": 358.9383,
        "meta_arg_of_pericenter": 339.6775,
        "meta_mean_anomaly": 20.2231,
        "meta_ephemeris_type": 0,
        "meta_classification_type": "U",
        "meta_norad_cat_id": 29958,
        "meta_element_set_no": 999,
        "meta_rev_at_epoch": 97419,
        "meta_bstar": 0.00051154099,
        "meta_mean_motion_dot": 9.51e-06,
        "meta_mean_motion_ddot": 0,
        "tle_line1": "1 29958U 99025KG  25344.50584256  .00000951  00000+0  51154-3 0  9994",
        "tle_line2": "2 29958  98.6687 358.9383 0054469 339.6775  20.2231 14.14452454974190"
      },
      "geometry": {
        "type": "Point",
        "coordinates": [
          3.383122766573614,
          -23.275223370298534
        ]
      }
    },
    {
      "type": "Feature",
      "properties": {
        "norad_id": 29959,
        "name": "FENGYUN 1C DEB",
        "group": "fengyun-1c-debris",
        "lat": -0.02874199643977863,
        "lon": 15.918729233939624,
        "alt_km": 849.0964342294883,
        "timestamp": "2025-12-11T05:00:26.581422+00:00",
        "meta_object_name": "FENGYUN 1C DEB",
        "meta_object_id": "1999-025KH",
        "meta_epoch": "2025-12-10T08:35:43.474848",
        "meta_mean_motion": 14.06014122,
        "meta_eccentricity": 0.00417602,
        "meta_inclination": 98.8086,
        "meta_ra_of_asc_node": 15.0872,
        "meta_arg_of_pericenter": 334.7673,
        "meta_mean_anomaly": 42.5565,
        "meta_ephemeris_type": 0,
        "meta_classification_type": "U",
        "meta_norad_cat_id": 29959,
        "meta_element_set_no": 999,
        "meta_rev_at_epoch": 96907,
        "meta_bstar": 0.0001733286,
        "meta_mean_motion_dot": 2.43e-06,
        "meta_mean_motion_ddot": 0,
        "tle_line1": "1 29959U 99025KH  25344.35814207  .00000243  00000+0  17333-3 0  9995",
        "tle_line2": "2 29959  98.8086  15.0872 0041760 334.7673  42.5565 14.06014122969078"
      },
      "geometry": {
        "type": "Point",
        "coordinates": [
          15.918729233939624,
          -0.02874199643977863
        ]
      }
    },
    {
      "type": "Feature",
      "properties": {
        "norad_id": 29960,
        "name": "FENGYUN 1C DEB",
        "group": "fengyun-1c-debris",
        "lat": 18.62354467394628,
        "lon": -32.10003147196697,
        "alt_km": 835.1095182839517,
        "timestamp": "2025-12-11T05:00:26.581432+00:00",
        "meta_object_name": "FENGYUN 1C DEB",
        "meta_object_id": "1999-025KJ",
        "meta_epoch": "2025-12-10T12:34:52.582080",
        "meta_mean_motion": 14.16396281,
        "meta_eccentricity": 0.00910148,
        "meta_inclination": 98.6143,
        "meta_ra_of_asc_node": 330.1658,
        "meta_arg_of_pericenter": 292.7181,
        "meta_mean_anomaly": 197.2722,
        "meta_ephemeris_type": 0,
        "meta_classification_type": "U",
        "meta_norad_cat_id": 29960,
        "meta_element_set_no": 999,
        "meta_rev_at_epoch": 97423,
        "meta_bstar": 0.000748542,
        "meta_mean_motion_dot": 1.505e-05,
        "meta_mean_motion_ddot": 0,
        "tle_line1": "1 29960U 99025KJ  25344.52421970  .00001505  00000+0  74854-3 0  9990",
        "tle_line2": "2 29960  98.6143 330.1658 0091014 292.7181 197.2722 14.16396281974236"
      },
      "geometry": {
        "type": "Point",
        "coordinates": [
          -32.10003147196697,
          18.62354467394628
        ]
      }
    }
  ]
}